[{"OBJECT_NAME":"STARLINK-5028","OBJECT_ID":"2022-119A","EPOCH":"2026-03-09T23:16:49.797984","MEAN_MOTION":15.08835337,"ECCENTRICITY":0.00016527,"INCLINATION":53.2195,"RA_OF_ASC_NODE":323.0922,"ARG_OF_PERICENTER":73.9693,"MEAN_ANOMALY":286.1481,"EPHEMERIS_TYPE":0,"CLASSIFICATION_TYPE":"U","NORAD_CAT_ID":53886,"ELEMENT_SET_NO":999,"REV_AT_EPOCH":19172,"BSTAR":-3.7528285e-5,"MEAN_MOTION_DOT":-8.85e-6,"MEAN_MOTION_DDOT":0},{"OBJECT_NAME":"FENGYUN 1C DEB","OBJECT_ID":"1999-025BFB","EPOCH":"2026-03-07T22:39:13.230432","MEAN_MOTION":14.80895829,"ECCENTRICITY":0.01343541,"INCLINATION":99.2432,"RA_OF_ASC_NODE":124.2719,"ARG_OF_PERICENTER":346.3958,"MEAN_ANOMALY":13.3642,"EPHEMERIS_TYPE":0,"CLASSIFICATION_TYPE":"U","NORAD_CAT_ID":31057,"ELEMENT_SET_NO":999,"REV_AT_EPOCH":63213,"BSTAR":0.0011769904,"MEAN_MOTION_DOT":0.0001056,"MEAN_MOTION_DDOT":0}]
